start=new Date('2021-11-06T00:00:00.000Z').valueOf();
sats=[{"ECCENTRICITY":"0.00060880","EPOCH":"2021-11-05T10:47:58.055136","OBJECT_TYPE":"PAYLOAD","TLE_LINE2":"2 45224  53.0494 215.0766 0006088 295.7110  64.3276 15.68050187 97306","MEAN_MOTION_DOT":"0.00033666","EPHEMERIS_TYPE":"0","MEAN_MOTION_DDOT":"0.0000000000000","REF_FRAME":"TEME","ELEMENT_SET_NO":"999","REV_AT_EPOCH":"9730","NORAD_CAT_ID":"45224","INCLINATION":"53.0494","MEAN_ELEMENT_THEORY":"SGP4","MEAN_MOTION":"15.68050187","RA_OF_ASC_NODE":"215.0766","PERIOD":"91.834","ARG_OF_PERICENTER":"295.7110","LAUNCH_DATE":"2020-02-17","GP_ID":"189009773","OBJECT_NAME":"STARLINK-1214","CENTER_NAME":"EARTH","DECAY_DATE":null,"TLE_LINE1":"1 45224U 20012AY  21309.44997749  .00033666  00000-0  30115-3 0  9997","APOAPSIS":"368.588","SEMIMAJOR_AXIS":"6742.618","BSTAR":"0.00030115000000","CLASSIFICATION_TYPE":"U","RCS_SIZE":"LARGE","FILE":"3203969","MEAN_ANOMALY":"64.3276","SITE":"AFETR","COUNTRY_CODE":"US","PERIAPSIS":"360.378","OBJECT_ID":"2020-012AY","TIME_SYSTEM":"UTC"},{"CLASSIFICATION_TYPE":"U","BSTAR":"-0.00012740000000","RCS_SIZE":"LARGE","FILE":"3204412","MEAN_ANOMALY":"293.5807","SITE":"AFETR","COUNTRY_CODE":"US","OBJECT_ID":"2020-012AZ","TIME_SYSTEM":"UTC","PERIAPSIS":"546.154","GP_ID":"189044101","LAUNCH_DATE":"2020-02-17","CENTER_NAME":"EARTH","OBJECT_NAME":"STARLINK-1215","DECAY_DATE":null,"TLE_LINE1":"1 45225U 20012AZ  21309.94087894 -.00002178  00000-0 -12740-3 0  9994","APOAPSIS":"548.359","SEMIMAJOR_AXIS":"6925.392","NORAD_CAT_ID":"45225","REV_AT_EPOCH":"9649","INCLINATION":"53.0531","MEAN_ELEMENT_THEORY":"SGP4","PERIOD":"95.593","ARG_OF_PERICENTER":"66.5349","MEAN_MOTION":"15.06385921","RA_OF_ASC_NODE":"280.8255","TLE_LINE2":"2 45225  53.0531 280.8255 0001592  66.5349 293.5807 15.06385921 96499","OBJECT_TYPE":"PAYLOAD","ECCENTRICITY":"0.00015920","EPOCH":"2021-11-05T22:34:51.940416","REF_FRAME":"TEME","MEAN_MOTION_DDOT":"0.0000000000000","MEAN_MOTION_DOT":"-0.00002178","EPHEMERIS_TYPE":"0","ELEMENT_SET_NO":"999"},{"DECAY_DATE":null,"APOAPSIS":"548.066","TLE_LINE1":"1 45226U 20012BA  21309.94824783  .00000530  00000-0  54487-4 0  9994","SEMIMAJOR_AXIS":"6925.382","GP_ID":"189044861","LAUNCH_DATE":"2020-02-17","CENTER_NAME":"EARTH","OBJECT_NAME":"STARLINK-1217","SITE":"AFETR","COUNTRY_CODE":"US","OBJECT_ID":"2020-012BA","TIME_SYSTEM":"UTC","PERIAPSIS":"546.428","CLASSIFICATION_TYPE":"U","BSTAR":"0.00005448700000","RCS_SIZE":"LARGE","FILE":"3204412","MEAN_ANOMALY":"283.7374","MEAN_MOTION_DDOT":"0.0000000000000","REF_FRAME":"TEME","EPHEMERIS_TYPE":"0","MEAN_MOTION_DOT":"0.00000530","ELEMENT_SET_NO":"999","TLE_LINE2":"2 45226  53.0543 280.7963 0001183  76.3746 283.7374 15.06389052 96459","OBJECT_TYPE":"PAYLOAD","ECCENTRICITY":"0.00011830","EPOCH":"2021-11-05T22:45:28.612512","ARG_OF_PERICENTER":"76.3746","PERIOD":"95.593","MEAN_MOTION":"15.06389052","RA_OF_ASC_NODE":"280.7963","NORAD_CAT_ID":"45226","REV_AT_EPOCH":"9645","INCLINATION":"53.0543","MEAN_ELEMENT_THEORY":"SGP4"},{"CENTER_NAME":"EARTH","OBJECT_NAME":"STARLINK-1221","GP_ID":"189045088","LAUNCH_DATE":"2020-02-17","SEMIMAJOR_AXIS":"6925.300","TLE_LINE1":"1 45227U 20012BB  21309.63861567  .00006283  00000-0  44015-3 0  9998","APOAPSIS":"548.315","DECAY_DATE":null,"MEAN_ANOMALY":"291.0736","RCS_SIZE":"LARGE","FILE":"3204412","CLASSIFICATION_TYPE":"U","BSTAR":"0.00044015000000","TIME_SYSTEM":"UTC","OBJECT_ID":"2020-012BB","PERIAPSIS":"546.015","COUNTRY_CODE":"US","SITE":"AFETR","TLE_LINE2":"2 45227  53.0525 282.1989 0001661  69.0431 291.0736 15.06415790 96414","OBJECT_TYPE":"PAYLOAD","EPOCH":"2021-11-05T15:19:36.393888","ECCENTRICITY":"0.00016610","ELEMENT_SET_NO":"999","REF_FRAME":"TEME","MEAN_MOTION_DDOT":"0.0000000000000","MEAN_MOTION_DOT":"0.00006283","EPHEMERIS_TYPE":"0","MEAN_ELEMENT_THEORY":"SGP4","INCLINATION":"53.0525","NORAD_CAT_ID":"45227","REV_AT_EPOCH":"9641","ARG_OF_PERICENTER":"69.0431","PERIOD":"95.591","MEAN_MOTION":"15.06415790","RA_OF_ASC_NODE":"282.1989"},{"EPOCH":"2021-11-05T15:24:54.861696","ECCENTRICITY":"0.00013170","OBJECT_TYPE":"PAYLOAD","TLE_LINE2":"2 45228  53.0536 282.1668 0001317  72.9413 287.1720 15.06417314 96381","ELEMENT_SET_NO":"999","EPHEMERIS_TYPE":"0","MEAN_MOTION_DOT":"0.00007958","REF_FRAME":"TEME","MEAN_MOTION_DDOT":"0.0000000000000","MEAN_ELEMENT_THEORY":"SGP4","INCLINATION":"53.0536","REV_AT_EPOCH":"9638","NORAD_CAT_ID":"45228","RA_OF_ASC_NODE":"282.1668","MEAN_MOTION":"15.06417314","PERIOD":"95.591","ARG_OF_PERICENTER":"72.9413","OBJECT_NAME":"STARLINK-1222","CENTER_NAME":"EARTH","LAUNCH_DATE":"2020-02-17","GP_ID":"189043360","SEMIMAJOR_AXIS":"6925.295","APOAPSIS":"548.073","TLE_LINE1":"1 45228U 20012BC  21309.64230164  .00007958  00000-0  55228-3 0  9991","DECAY_DATE":null,"MEAN_ANOMALY":"287.1720","FILE":"3204412","RCS_SIZE":"LARGE","BSTAR":"0.00055228000000","CLASSIFICATION_TYPE":"U","PERIAPSIS":"546.248","OBJECT_ID":"2020-012BC","TIME_SYSTEM":"UTC","COUNTRY_CODE":"US","SITE":"AFETR"},{"DECAY_DATE":null,"TLE_LINE1":"1 45229U 20012BD  21309.34005456  .00006837  00000-0  47718-3 0  9993","APOAPSIS":"548.257","SEMIMAJOR_AXIS":"6925.290","LAUNCH_DATE":"2020-02-17","GP_ID":"189010523","OBJECT_NAME":"STARLINK-1226","CENTER_NAME":"EARTH","SITE":"AFETR","COUNTRY_CODE":"US","PERIAPSIS":"546.052","OBJECT_ID":"2020-012BD","TIME_SYSTEM":"UTC","BSTAR":"0.00047718000000","CLASSIFICATION_TYPE":"U","FILE":"3203969","RCS_SIZE":"LARGE","MEAN_ANOMALY":"292.4133","MEAN_MOTION_DOT":"0.00006837","EPHEMERIS_TYPE":"0","MEAN_MOTION_DDOT":"0.0000000000000","REF_FRAME":"TEME","ELEMENT_SET_NO":"999","ECCENTRICITY":"0.00015920","EPOCH":"2021-11-05T08:09:40.713984","TLE_LINE2":"2 45229  53.0550 283.5204 0001592  67.7024 292.4133 15.06419241 96348","OBJECT_TYPE":"PAYLOAD","RA_OF_ASC_NODE":"283.5204","MEAN_MOTION":"15.06419241","ARG_OF_PERICENTER":"67.7024","PERIOD":"95.591","REV_AT_EPOCH":"9634","NORAD_CAT_ID":"45229","INCLINATION":"53.0550","MEAN_ELEMENT_THEORY":"SGP4"},{"BSTAR":"0.00003792100000","CLASSIFICATION_TYPE":"U","FILE":"3204412","RCS_SIZE":"LARGE","MEAN_ANOMALY":"281.5138","SITE":"AFETR","COUNTRY_CODE":"US","PERIAPSIS":"546.221","TIME_SYSTEM":"UTC","OBJECT_ID":"2020-012BE","LAUNCH_DATE":"2020-02-17","GP_ID":"189044362","OBJECT_NAME":"STARLINK-1227","CENTER_NAME":"EARTH","DECAY_DATE":null,"TLE_LINE1":"1 45230U 20012BE  21309.66811803  .00000283  00000-0  37921-4 0  9996","APOAPSIS":"548.255","SEMIMAJOR_AXIS":"6925.373","REV_AT_EPOCH":"9651","NORAD_CAT_ID":"45230","INCLINATION":"53.0541","MEAN_ELEMENT_THEORY":"SGP4","MEAN_MOTION":"15.06391992","RA_OF_ASC_NODE":"282.0550","PERIOD":"95.593","ARG_OF_PERICENTER":"78.6016","ECCENTRICITY":"0.00014680","EPOCH":"2021-11-05T16:02:05.397792","TLE_LINE2":"2 45230  53.0541 282.0550 0001468  78.6016 281.5138 15.06391992 96517","OBJECT_TYPE":"PAYLOAD","MEAN_MOTION_DOT":"0.00000283","EPHEMERIS_TYPE":"0","REF_FRAME":"TEME","MEAN_MOTION_DDOT":"0.0000000000000","ELEMENT_SET_NO":"999"},{"EPOCH":"2021-11-05T17:29:09.963456","ECCENTRICITY":"0.00042460","TLE_LINE2":"2 45231  53.0329 219.5252 0004246 354.9362   5.1612 15.73208760 97250","OBJECT_TYPE":"PAYLOAD","EPHEMERIS_TYPE":"0","MEAN_MOTION_DOT":"-0.00005379","MEAN_MOTION_DDOT":"0.0000000000000","REF_FRAME":"TEME","ELEMENT_SET_NO":"999","REV_AT_EPOCH":"9725","NORAD_CAT_ID":"45231","MEAN_ELEMENT_THEORY":"SGP4","INCLINATION":"53.0329","RA_OF_ASC_NODE":"219.5252","MEAN_MOTION":"15.73208760","PERIOD":"91.533","ARG_OF_PERICENTER":"354.9362","LAUNCH_DATE":"2020-02-17","GP_ID":"189044589","OBJECT_NAME":"STARLINK-1229","CENTER_NAME":"EARTH","DECAY_DATE":null,"SEMIMAJOR_AXIS":"6727.870","TLE_LINE1":"1 45231U 20012BF  21309.72858754 -.00005379  00000-0 -33850-4 0  9990","APOAPSIS":"352.592","BSTAR":"-0.00003385000000","CLASSIFICATION_TYPE":"U","MEAN_ANOMALY":"5.1612","RCS_SIZE":"LARGE","FILE":"3204412","SITE":"AFETR","COUNTRY_CODE":"US","PERIAPSIS":"346.879","TIME_SYSTEM":"UTC","OBJECT_ID":"2020-012BF"},{"ARG_OF_PERICENTER":"76.6527","PERIOD":"95.592","RA_OF_ASC_NODE":"283.1952","MEAN_MOTION":"15.06406278","NORAD_CAT_ID":"45232","REV_AT_EPOCH":"9646","INCLINATION":"53.0546","MEAN_ELEMENT_THEORY":"SGP4","MEAN_MOTION_DDOT":"0.0000000000000","REF_FRAME":"TEME","EPHEMERIS_TYPE":"0","MEAN_MOTION_DOT":"0.00002261","ELEMENT_SET_NO":"999","OBJECT_TYPE":"PAYLOAD","TLE_LINE2":"2 45232  53.0546 283.1952 0001460  76.6527 283.4625 15.06406278 96469","ECCENTRICITY":"0.00014600","EPOCH":"2021-11-05T09:55:50.266272","SITE":"AFETR","COUNTRY_CODE":"US","TIME_SYSTEM":"UTC","OBJECT_ID":"2020-012BG","PERIAPSIS":"546.183","CLASSIFICATION_TYPE":"U","BSTAR":"0.00017060000000","RCS_SIZE":"LARGE","FILE":"3203969","MEAN_ANOMALY":"283.4625","DECAY_DATE":null,"APOAPSIS":"548.205","TLE_LINE1":"1 45232U 20012BG  21309.41377623  .00002261  00000-0  17060-3 0  9997","SEMIMAJOR_AXIS":"6925.329","GP_ID":"189009774","LAUNCH_DATE":"2020-02-17","CENTER_NAME":"EARTH","OBJECT_NAME":"STARLINK-1235"},{"TLE_LINE2":"2 45233  53.0561 303.2818 0001557  69.0218 291.0937 15.06411208 95236","OBJECT_TYPE":"PAYLOAD","EPOCH":"2021-11-05T09:26:38.561568","ECCENTRICITY":"0.00015570","ELEMENT_SET_NO":"999","REF_FRAME":"TEME","MEAN_MOTION_DDOT":"0.0000000000000","EPHEMERIS_TYPE":"0","MEAN_MOTION_DOT":"0.00004135","MEAN_ELEMENT_THEORY":"SGP4","INCLINATION":"53.0561","NORAD_CAT_ID":"45233","REV_AT_EPOCH":"9523","PERIOD":"95.591","ARG_OF_PERICENTER":"69.0218","MEAN_MOTION":"15.06411208","RA_OF_ASC_NODE":"303.2818","CENTER_NAME":"EARTH","OBJECT_NAME":"STARLINK-1238","GP_ID":"189020272","LAUNCH_DATE":"2020-02-17","SEMIMAJOR_AXIS":"6925.314","TLE_LINE1":"1 45233U 20012BH  21309.39350187  .00004135  00000-0  29624-3 0  9992","APOAPSIS":"548.257","DECAY_DATE":null,"MEAN_ANOMALY":"291.0937","FILE":"3204225","RCS_SIZE":"LARGE","CLASSIFICATION_TYPE":"U","BSTAR":"0.00029624000000","TIME_SYSTEM":"UTC","OBJECT_ID":"2020-012BH","PERIAPSIS":"546.101","SITE":"AFETR","COUNTRY_CODE":"US"}];
